{
  "type": "FeatureCollection",
  "features": [
    {
      "type": "Feature",
      "properties": {
        "norad_id": 33972,
        "name": "COSMOS 2251 DEB",
        "group": "cosmos-2251-debris",
        "lat": 73.30486473651283,
        "lon": -89.66988198605945,
        "alt_km": 746.7591146600589,
        "timestamp": "2025-12-09T04:51:47.884643+00:00",
        "meta_object_name": "COSMOS 2251 DEB",
        "meta_object_id": "1993-036FF",
        "meta_epoch": "2025-12-08T09:14:11.114304",
        "meta_mean_motion": 14.36176822,
        "meta_eccentricity": 0.01230842,
        "meta_inclination": 73.9938,
        "meta_ra_of_asc_node": 198.6837,
        "meta_arg_of_pericenter": 7.3687,
        "meta_mean_anomaly": 170.0122,
        "meta_ephemeris_type": 0,
        "meta_classification_type": "U",
        "meta_norad_cat_id": 33972,
        "meta_element_set_no": 999,
        "meta_rev_at_epoch": 87011,
        "meta_bstar": 0.0015608528,
        "meta_mean_motion_dot": 4.938e-05,
        "meta_mean_motion_ddot": 0,
        "tle_line1": "1 33972U 93036FF  25342.38485086  .00004938  00000+0  15609-2 0  9999",
        "tle_line2": "2 33972  73.9938 198.6837 0123084   7.3687 170.0122 14.36176822870116"
      },
      "geometry": {
        "type": "Point",
        "coordinates": [
          -89.66988198605945,
          73.30486473651283
        ]
      }
    },
    {
      "type": "Feature",
      "properties": {
        "norad_id": 33973,
        "name": "COSMOS 2251 DEB",
        "group": "cosmos-2251-debris",
        "lat": 70.09534988616547,
        "lon": 161.8728283205752,
        "alt_km": 762.5594182649256,
        "timestamp": "2025-12-09T04:51:47.884654+00:00",
        "meta_object_name": "COSMOS 2251 DEB",
        "meta_object_id": "1993-036FG",
        "meta_epoch": "2025-12-08T19:18:06.698016",
        "meta_mean_motion": 14.45384738,
        "meta_eccentricity": 0.0047256,
        "meta_inclination": 74.0078,
        "meta_ra_of_asc_node": 110.2404,
        "meta_arg_of_pericenter": 289.3846,
        "meta_mean_anomaly": 236.2099,
        "meta_ephemeris_type": 0,
        "meta_classification_type": "U",
        "meta_norad_cat_id": 33973,
        "meta_element_set_no": 999,
        "meta_rev_at_epoch": 88543,
        "meta_bstar": 0.00030298,
        "meta_mean_motion_dot": 1.052e-05,
        "meta_mean_motion_ddot": 0,
        "tle_line1": "1 33973U 93036FG  25342.80424419  .00001052  00000+0  30298-3 0  9996",
        "tle_line2": "2 33973  74.0078 110.2404 0047256 289.3846 236.2099 14.45384738885435"
      },
      "geometry": {
        "type": "Point",
        "coordinates": [
          161.8728283205752,
          70.09534988616547
        ]
      }
    },
    {
      "type": "Feature",
      "properties": {
        "norad_id": 33975,
        "name": "COSMOS 2251 DEB",
        "group": "cosmos-2251-debris",
        "lat": -47.30491415936104,
        "lon": -70.96589187356024,
        "alt_km": 759.9426302688516,
        "timestamp": "2025-12-09T04:51:47.884664+00:00",
        "meta_object_name": "COSMOS 2251 DEB",
        "meta_object_id": "1993-036FJ",
        "meta_epoch": "2025-12-08T17:28:36.999264",
        "meta_mean_motion": 14.00512405,
        "meta_eccentricity": 0.0191401,
        "meta_inclination": 73.8025,
        "meta_ra_of_asc_node": 91.5044,
        "meta_arg_of_pericenter": 225.0154,
        "meta_mean_anomaly": 133.5332,
        "meta_ephemeris_type": 0,
        "meta_classification_type": "U",
        "meta_norad_cat_id": 33975,
        "meta_element_set_no": 999,
        "meta_rev_at_epoch": 85773,
        "meta_bstar": 0.0013083,
        "meta_mean_motion_dot": 2.251e-05,
        "meta_mean_motion_ddot": 0,
        "tle_line1": "1 33975U 93036FJ  25342.72820601  .00002251  00000+0  13083-2 0  9996",
        "tle_line2": "2 33975  73.8025  91.5044 0191401 225.0154 133.5332 14.00512405857734"
      },
      "geometry": {
        "type": "Point",
        "coordinates": [
          -70.96589187356024,
          -47.30491415936104
        ]
      }
    },
    {
      "type": "Feature",
      "properties": {
        "norad_id": 33980,
        "name": "COSMOS 2251 DEB",
        "group": "cosmos-2251-debris",
        "lat": 44.07202578571871,
        "lon": 82.24235438336294,
        "alt_km": 713.3790170351758,
        "timestamp": "2025-12-09T04:51:47.884674+00:00",
        "meta_object_name": "COSMOS 2251 DEB",
        "meta_object_id": "1993-036FP",
        "meta_epoch": "2025-12-08T16:11:00.261312",
        "meta_mean_motion": 14.5861034,
        "meta_eccentricity": 0.0028919,
        "meta_inclination": 74.0216,
        "meta_ra_of_asc_node": 67.1441,
        "meta_arg_of_pericenter": 212.9955,
        "meta_mean_anomaly": 300.389,
        "meta_ephemeris_type": 0,
        "meta_classification_type": "U",
        "meta_norad_cat_id": 33980,
        "meta_element_set_no": 999,
        "meta_rev_at_epoch": 88735,
        "meta_bstar": 0.001256,
        "meta_mean_motion_dot": 5.856e-05,
        "meta_mean_motion_ddot": 0,
        "tle_line1": "1 33980U 93036FP  25342.67430858  .00005856  00000+0  12560-2 0  9990",
        "tle_line2": "2 33980  74.0216  67.1441 0028919 212.9955 300.3890 14.58610340887356"
      },
      "geometry": {
        "type": "Point",
        "coordinates": [
          82.24235438336294,
          44.07202578571871
        ]
      }
    },
    {
      "type": "Feature",
      "properties": {
        "norad_id": 33982,
        "name": "COSMOS 2251 DEB",
        "group": "cosmos-2251-debris",
        "lat": -57.42954146125476,
        "lon": -146.76848817824407,
        "alt_km": 751.6477238025573,
        "timestamp": "2025-12-09T04:51:47.884684+00:00",
        "meta_object_name": "COSMOS 2251 DEB",
        "meta_object_id": "1993-036FR",
        "meta_epoch": "2025-12-08T20:20:55.491936",
        "meta_mean_motion": 14.60190709,
        "meta_eccentricity": 0.0074959,
        "meta_inclination": 74.0708,
        "meta_ra_of_asc_node": 7.3503,
        "meta_arg_of_pericenter": 52.9799,
        "meta_mean_anomaly": 124.1442,
        "meta_ephemeris_type": 0,
        "meta_classification_type": "U",
        "meta_norad_cat_id": 33982,
        "meta_element_set_no": 999,
        "meta_rev_at_epoch": 89102,
        "meta_bstar": 0.00064776,
        "meta_mean_motion_dot": 3.218e-05,
        "meta_mean_motion_ddot": 0,
        "tle_line1": "1 33982U 93036FR  25342.84786449  .00003218  00000+0  64776-3 0  9998",
        "tle_line2": "2 33982  74.0708   7.3503 0074959  52.9799 124.1442 14.60190709891021"
      },
      "geometry": {
        "type": "Point",
        "coordinates": [
          -146.76848817824407,
          -57.42954146125476
        ]
      }
    },
    {
      "type": "Feature",
      "properties": {
        "norad_id": 33983,
        "name": "COSMOS 2251 DEB",
        "group": "cosmos-2251-debris",
        "lat": -60.892553901756166,
        "lon": 122.77942276421454,
        "alt_km": 718.3086539626884,
        "timestamp": "2025-12-09T04:51:47.884695+00:00",
        "meta_object_name": "COSMOS 2251 DEB",
        "meta_object_id": "1993-036FS",
        "meta_epoch": "2025-12-08T19:46:06.428064",
        "meta_mean_motion": 14.50646531,
        "meta_eccentricity": 0.0021394,
        "meta_inclination": 74.0493,
        "meta_ra_of_asc_node": 154.4006,
        "meta_arg_of_pericenter": 257.7628,
        "meta_mean_anomaly": 218.6022,
        "meta_ephemeris_type": 0,
        "meta_classification_type": "U",
        "meta_norad_cat_id": 33983,
        "meta_element_set_no": 999,
        "meta_rev_at_epoch": 88572,
        "meta_bstar": 0.00097864,
        "meta_mean_motion_dot": 3.827e-05,
        "meta_mean_motion_ddot": 0,
        "tle_line1": "1 33983U 93036FS  25342.82368551  .00003827  00000+0  97864-3 0  9997",
        "tle_line2": "2 33983  74.0493 154.4006 0021394 257.7628 218.6022 14.50646531885727"
      },
      "geometry": {
        "type": "Point",
        "coordinates": [
          122.77942276421454,
          -60.892553901756166
        ]
      }
    },
    {
      "type": "Feature",
      "properties": {
        "norad_id": 33984,
        "name": "COSMOS 2251 DEB",
        "group": "cosmos-2251-debris",
        "lat": -20.201791359591724,
        "lon": 179.98867652351814,
        "alt_km": 661.3968262804874,
        "timestamp": "2025-12-09T04:51:47.884706+00:00",
        "meta_object_name": "COSMOS 2251 DEB",
        "meta_object_id": "1993-036FT",
        "meta_epoch": "2025-12-08T18:55:47.432352",
        "meta_mean_motion": 14.66310027,
        "meta_eccentricity": 0.0023359,
        "meta_inclination": 74.0095,
        "meta_ra_of_asc_node": 354.7305,
        "meta_arg_of_pericenter": 193.8891,
        "meta_mean_anomaly": 343.0823,
        "meta_ephemeris_type": 0,
        "meta_classification_type": "U",
        "meta_norad_cat_id": 33984,
        "meta_element_set_no": 999,
        "meta_rev_at_epoch": 89008,
        "meta_bstar": 0.0013093,
        "meta_mean_motion_dot": 7.23e-05,
        "meta_mean_motion_ddot": 0,
        "tle_line1": "1 33984U 93036FT  25342.78874343  .00007230  00000+0  13093-2 0  9997",
        "tle_line2": "2 33984  74.0095 354.7305 0023359 193.8891 343.0823 14.66310027890080"
      },
      "geometry": {
        "type": "Point",
        "coordinates": [
          179.98867652351814,
          -20.201791359591724
        ]
      }
    }
  ]
}